0 THORAD AGENA D DEB
1 19422U 70025QA  22013.74754896  .00000191  00000-0  29652-3 0  9998
2 19422 100.1283 346.1486 0011981  28.6050  92.9703 13.64864970826158
0 THORAD AGENA D DEB
1 19423U 70025QB  22013.95639138  .00005592  00000-0  99898-3 0  9992
2 19423  99.7925 179.0310 0035238 135.8860 224.5159 14.67043155889127
0 COSMOS 886 DEB *
1 19425U 76126CC  22012.36443462 -.00000255  00000-0 -72843-3 0  9993
2 19425  66.2336 140.5236 0331495 235.2886 156.0548 12.75375757408830
0 DELTA 1 DEB
1 19429U 77065FY  22012.48369161  .00003409  00000-0  50058-3 0  9992
2 19429  29.1078 146.4905 0497549 178.2864 181.9535 14.13844789655194
0 COSMOS 839 DEB
1 19439U 76067BS  22014.58877497 -.00000849  00000-0 -28033-2 0  9997
2 19439  65.8716  82.2331 0687056 126.4255 311.4127 12.35826183383245
0 COSMOS 1823 DEB
1 19440U 87020CA  22013.27277749  .00000019  00000-0  16590-3 0  9992
2 19440  73.7495 192.8652 0163807 226.8218 309.3595 12.75720409572434
0 SL-14 DEB
1 19450U 78100AH  22014.56933227 -.00000017  00000-0 -32361-3 0  9999
2 19450  82.5476 219.3385 0015003 255.0687 161.4839 11.98117436465105
0 SL-8 DEB
1 19451U 88016K   22014.56015752 -.00000007  00000-0  66062-4 0  9995
2 19451  74.0065 298.1298 0132080 189.4470 346.6675 12.26947309503738
0 COSMOS 1375 DEB
1 19453U 82055BL  22013.53928536  .00000676  00000-0  29516-3 0  9996
2 19453  65.8077  55.0835 0066360 238.9325 195.6174 14.29181826740349
0 DELTA 1 DEB
1 19455U 77065GA  22012.64329381  .00014676  00000-0  16796-2 0  9997
2 19455  28.7633   7.4643 0197472 354.1475   5.6817 14.71568475589027
0 FENGYUN 1A
1 19467U 88080A   22014.52163951 -.00000239  00000-0 -12412-3 0  9991
2 19467  99.2346  39.7847 0014966 128.1601 232.0915 14.03137390707439
0 CZ-4 R/B
1 19468U 88080B   22014.69237264 -.00000122  00000-0 -47900-4 0  9991
2 19468  99.1785  45.6365 0072375  89.1744  18.5629 14.03531032707901
0 COSMOS 1375 DEB
1 19473U 82055BM  22014.45041615  .00000398  00000-0  39038-3 0  9995
2 19473  65.8265  76.8391 0034705 307.2793  65.6658 13.89682469741376
0 COSMOS 886 DEB
1 19475U 76126CD  22013.66916832  .00000719  00000-0  39531-3 0  9998
2 19475  65.8319  10.8462 0844516 226.0362 126.7973 13.07190347497640
0 COSMOS 252 DEB
1 19479U 68097ET  22014.39237293  .00000130  00000-0  72996-4 0  9998
2 19479  62.8094 346.8835 0564525 215.7189 140.4835 13.81794979668304
0 GSTAR 3
1 19483U 88081A   22014.46843214 -.00000094  00000-0  00000-0 0  9995
2 19483  13.7602 332.2214 0006236 144.3487  60.6260  1.00272529118403
0 SBS 5
1 19484U 88081B   22014.38329243 -.00000328  00000-0  00000-0 0  9998
2 19484  14.2107  13.0518 0006202 318.7081  36.6553  0.99790791 30348
0 TITAN 34D TRANSTAGE R/B
1 19490U 88077C   22014.15051466 -.00000123  00000-0 -13102-2 0  9997
2 19490  26.2600 221.8691 7410456 221.9372  47.8472  2.02762117 19531
0 COSMOS 1970 (GLONASS)
1 19501U 88085A   22014.19698637 -.00000052  00000-0  00000-0 0  9991
2 19501  65.7760   8.9689 0008860  47.0049  30.1227  2.13101943259369
0 COSMOS 1971 (GLONASS)
1 19502U 88085B   22014.51646922 -.00000052  00000-0  00000-0 0  9998
2 19502  65.7710   8.8877 0021532  16.5996 153.7282  2.13101600244947
0 COSMOS 1972 (GLONASS)
1 19503U 88085C   22013.23395368 -.00000052  00000-0  00000-0 0  9992
2 19503  65.7992   9.3287 0003888 230.5581 128.3354  2.13102243259198
0 SL-12 R/B(2)
1 19505U 88085E   22014.45114826 -.00000053  00000-0  00000-0 0  9998
2 19505  65.7696   7.7995 0010481 221.2192 137.9371  2.13369589259587
0 CS 3B
1 19508U 88086A   22014.55301769  .00000065  00000-0  00000-0 0  9999
2 19508  15.0720   6.0939 0005201 344.4735 193.3643  0.99222125121235
0 OPS 4682 DEB
1 19511U 65027AU  22014.58437058  .00000158  00000-0  52299-3 0  9990
2 19511  90.2808 321.4495 0035079 350.2551 186.7635 12.96935692592542
0 DELTA 1 DEB
1 19512U 73086HF  22013.73088341 -.00000021  00000-0  19195-3 0  9996
2 19512 102.2867 353.2706 0029156 146.0484  30.9960 12.35094730518018
0 SCOUT G-1 DEB
1 19515U 88074D   22014.39664616  .00000237  00000-0  34967-3 0  9992
2 19515  89.9246 351.4007 0094999  98.6987  28.2382 13.49275818640012
0 SCOUT G-1 DEB
1 19516U 88074E   22013.47930094  .00000229  00000-0  33798-3 0  9999
2 19516  89.9953  21.2033 0089082  71.5552  54.9190 13.49597572640550
0 TITAN 3C TRANSTAGE DEB
1 19518U 65108Z   22012.26127400 -.00000476  00000-0 -32743-2 0  9993
2 19518  26.4332 306.8094 6658193 256.8274 319.9627  2.90520263297631
0 NOAA 11
1 19531U 88089A   22014.57773748  .00000014  00000-0  28247-4 0  9991
2 19531  98.4132  12.2069 0010039 261.6677  98.3359 14.15288873719052
0 SL-12 R/B(AUX MOTOR)
1 19535U 88085F   22014.59171300  .00000112  00000-0  22084-3 0  9990
2 19535  65.2410 159.9707 5492552  99.2321 323.7578  4.50841328525775
0 SL-12 R/B(AUX MOTOR)
1 19537U 88085G   22014.60524073  .00001607  00000-0  80384-3 0  9990
2 19537  64.7075 204.2033 5740665 157.1331 244.8683  4.36020650524286
0 TDRS 3
1 19548U 88091B   22014.23797649 -.00000290  00000-0  00000-0 0  9991
2 19548  13.8229 352.5456 0040581 327.3469 190.5013  1.00279250109191
0 IUS R/B(1)
1 19549U 88091C   22014.37212185  .00004764  00000-0  15675-2 0  9999
2 19549  26.6843 318.0634 6894627 337.5524   2.9843  2.77170241310578
0 IUS R/B(2)
1 19550U 88091D   22014.35535312 -.00000280  00000-0  00000-0 0  9993
2 19550  14.1036 343.7375 0014999 267.7369 278.5884  1.00479765113883
0 COSMOS 1974
1 19554U 88092A   22012.23295028  .00000122  00000-0  00000-0 0  9994
2 19554  69.9536 242.8766 4705911 109.7908 139.1493  2.00624043243707
0 SL-6 R/B(2)
1 19557U 88092D   22014.06970840  .00000167  00000-0  00000-0 0  9991
2 19557  69.3360 177.4918 4904144  82.0599  48.8210  2.04131061248074
0 SCOUT G-1 DEB
1 19559U 88074F   22013.60709177  .00000102  00000-0  15267-3 0  9998
2 19559  89.3996 140.2048 0095301 246.8266 125.5943 13.44863579637067
0 COSMOS 252 DEB
1 19561U 68097EU  22014.43652040  .00007615  00000-0  79399-3 0  9994
2 19561  62.2570 137.9825 0273050 168.5798 192.1649 14.66790126654180
0 COSMOS 1823 DEB
1 19562U 87020CD  22014.36237971  .00004031  00000-0  62642-2 0  9997
2 19562  74.4020  52.6078 0105515 321.7292  52.5592 13.48862795 11770
0 COSMOS 1975
1 19573U 88093A   22014.48402638  .00001476  00000-0  10053-3 0  9997
2 19573  82.5194 166.0216 0014324   4.5799 355.5556 15.05493852790110
0 SL-14 R/B
1 19574U 88093B   22014.50982501  .00000183  00000-0  19355-4 0  9992
2 19574  82.5313  21.3498 0021715   6.7305 109.3621 14.83414596776269
0 OPS 4682 DEB
1 19576U 65027AV  22014.62956031 -.00000625  00000-0 -21075-2 0  9991
2 19576  90.2674 332.5682 0025552 164.2390  11.9001 12.99713651588671
0 SCOUT G-1 DEB
1 19577U 88074G   22014.55489434  .00000125  00000-0  19880-3 0  9994
2 19577  90.5298  48.8262 0088499 282.6221 207.6895 13.44526958636510
0 SL-14 DEB
1 19580U 78100AL  22013.62241414  .00000041  00000-0  14696-3 0  9995
2 19580  82.6513 233.8283 0303216 166.2750 255.2744 12.56092055493742
0 DELTA 1 DEB
1 19590U 73086HG  22014.75966155 -.00000038  00000-0  64684-4 0  9995
2 19590 102.4292   3.0704 0046031  67.3587 108.0711 12.31820173656621
0 TITAN 3C TRANSTAGE DEB
1 19592U 65108AA  22013.28261405  .00000290  00000-0  15397-2 0  9990
2 19592  26.5182 205.6314 6747299 115.6901   8.0276  2.81860476299577
0 OPS 4682 DEB
1 19593U 65027AW  22014.64662632 -.00000617  00000-0 -22486-2 0  9991
2 19593  90.2684 330.1560 0030140  32.6678 144.8303 12.94201465593112
0 DELTA 1 DEB
1 19594U 78026HN  22014.19473597  .00001703  00000-0  82835-3 0  9995
2 19594  98.9321   9.0106 0116550 176.0588 184.1531 14.16074394475111
0 TITAN 3C TRANSTAGE DEB
1 19595U 65108AB  22008.58377909  .00001980  00000-0  13516-2 0  9995
2 19595  26.8961 237.0605 6046797  37.9086 352.1731  3.90087046379512
0 RADUGA 22
1 19596U 88095A   22014.31281187 -.00000356  00000-0  00000-0 0  9995
2 19596  13.5312 342.1315 0005455 118.3218 249.3516  1.00329610105467
0 DELTA 1 DEB
1 19599U 84088H   22012.54323116  .00000190  00000-0  91777-4 0  9998
2 19599  28.7157  89.6720 1922869 353.5620   4.3170 10.93365018 59946
0 COSMOS 1977
1 19608U 88096A   22013.91607458  .00000182  00000-0  00000-0 0  9994
2 19608  69.1865 185.7651 4831873  94.0230  34.3090  2.00740798243405
0 SL-6 R/B(2)
1 19611U 88096D   22014.07081597 -.00000197  00000-0  00000-0 0  9993
2 19611  68.4804 108.1038 5697267  70.0196 340.7827  2.04277715247724
0 TDF 1
1 19621U 88098A   22014.24090510 -.00000233  00000-0  00000-0 0  9991
2 19621  15.1742   2.7546 0009470 205.4001 159.8172  0.99198037117836
0 ARIANE 2 R/B
1 19622U 88098B   22014.29095173  .00001266  00000-0  37121-3 0  9990
2 19622   3.9036  29.3404 6273767 147.7378 273.9151  3.61820188363872
0 DELTA 1 DEB *
1 19638U 77065GB  22007.95898187  .00001738  00000-0  54707-2 0  9992
2 19638  30.9925 198.5136 0652581 100.6284  52.0322 12.46298516371546
0 COSMOS 1823 DEB
1 19640U 87020CE  22012.55335941  .00000012  00000-0  27276-3 0  9999
2 19640  73.5454  47.9993 0164473 186.9464 328.5584 12.16743734396252
0 SL-3 DEB
1 19643U 78121C   22014.36024300  .00000079  00000-0  33253-4 0  9995
2 19643  81.2413 324.7058 0065829 126.1423 357.0209 14.15219087715065
0 SL-14 DEB
1 19646U 78100AM  22014.80258333  .00000789  00000-0  25014-2 0  9991
2 19646  82.1348  27.9684 0149328  64.4986 109.7913 12.98647882215209
0 COSMOS 1980
1 19649U 88102A   22014.56574290  .00000298  00000-0  17943-3 0  9991
2 19649  70.9999 155.5424 0007425 285.1632  74.8669 14.14744859710820
0 SL-16 R/B
1 19650U 88102B   22014.58468420 -.00000273  00000-0 -11446-3 0  9999
2 19650  71.0005  98.4104 0013507 167.2399 192.9068 14.15816684712420
0 SL-16 DEB
1 19656U 88102C   22014.59437432  .00000004  00000-0  45407-4 0  9990
2 19656  70.9808 109.2985 0213649 323.1342  35.5226 13.71299824657791
0 SL-16 DEB
1 19657U 88102D   22014.61716645  .00000021  00000-0  61146-4 0  9997
2 19657  70.9822  96.4038 0214070 287.9951 140.1685 13.71606907658221
0 SL-16 DEB
1 19658U 88102E   22014.52287134 -.00000030  00000-0  10866-4 0  9998
2 19658  71.0216  34.2969 0197187 154.7579 283.0818 13.74464610661685
